STARLINK N              
1 56105U 23046N   23093.66667824 -.00881612  00000+0 -57519-2 0  9990
2 56105  42.9997 234.9539 0004362 268.9799  41.3666 15.77276594  1302
STARLINK P              
1 56106U 23046P   23093.66667824 -.00883206  00000+0 -57783-2 0  9995
2 56106  42.9997 234.9554 0003494 269.0198  40.6474 15.77230723  1303
STARLINK Q              
1 56107U 23046Q   23093.66667824 -.00882563  00000+0 -57475-2 0  9999
2 56107  42.9997 234.9522 0003968 268.9818  42.0248 15.77325366  1305
STARLINK R              
1 56108U 23046R   23093.66667824 -.00880763  00000+0 -57642-2 0  9996
2 56108  42.9998 234.9564 0004356 268.8565  40.4712 15.77205594  1301
STARLINK S              
1 56109U 23046S   23093.66667824 -.00882062  00000+0 -57490-2 0  9992
2 56109  42.9997 234.9531 0004290 268.9142  41.7596 15.77301293  1301
STARLINK T              
1 56110U 23046T   23093.66667824 -.00883138  00000+0 -57717-2 0  9991
2 56110  42.9997 234.9546 0003495 269.0340  40.9716 15.77254218  1306
STARLINK U              
1 56111U 23046U   23093.66667824 -.00882276  00000+0 -57198-2 0  9997
2 56111  42.9997 234.9490 0004283 268.8915  43.4365 15.77420264  1300
STARLINK V              
1 56112U 23046V   23093.66667824 -.00881456  00000+0 -57265-2 0  9992
2 56112  42.9997 234.9505 0004270 268.8049  42.8689 15.77371693  1305
STARLINK W              
1 56113U 23046W   23093.66667824 -.00882239  00000+0 -57141-2 0  9996
2 56113  42.9997 234.9482 0004192 269.0455  43.6261 15.77442559  1302
STARLINK X              
1 56114U 23046X   23093.66667824 -.00885657  00000+0 -57660-2 0  9990
2 56114  42.9997 234.9514 0003019 269.5020  41.8260 15.77351870  1303
STARLINK Y              
1 56115U 23046Y   23093.66667824 -.00883352  00000+0 -57118-2 0  9999
2 56115  42.9998 234.9467 0003594 269.0029  44.3256 15.77490254  1307
STARLINK Z              
1 56116U 23046Z   23093.66667824 -.00882390  00000+0 -57273-2 0  9993
2 56116  42.9997 234.9497 0004070 269.0386  42.9523 15.77397278  1309
STARLINK AA             
1 56117U 23046AA  23093.66667824 -.00882860  00000+0 -56874-2 0  9992
2 56117  42.9997 234.9442 0004271 269.0036  45.2844 15.77562452  1305
STARLINK AB             
1 56118U 23046AB  23093.66667824 -.00882742  00000+0 -57122-2 0  9999
2 56118  42.9997 234.9472 0004059 268.9887  44.0204 15.77465712  1303
STARLINK AC             
1 56119U 23046AC  23093.66667824 -.00884209  00000+0 -56817-2 0  9990
2 56119  42.9998 234.9418 0003552 268.9861  46.2972 15.77631495  1303
STARLINK AD             
1 56120U 23046AD  23093.66667824 -.00883520  00000+0 -56999-2 0  9998
2 56120  42.9997 234.9448 0003829 269.0287  44.9483 15.77538067  1301
STARLINK AE             
1 56121U 23046AE  23093.66667824 -.00884259  00000+0 -56879-2 0  9996
2 56121  42.9998 234.9426 0003472 268.9777  45.9633 15.77609748  1308
STARLINK AF             
1 56122U 23046AF  23093.66667824 -.00882865  00000+0 -57003-2 0  9998
2 56122  42.9997 234.9457 0004092 268.9941  44.6478 15.77514873  1301
STARLINK AH             
1 56123U 23046AH  23093.66667824 -.00883756  00000+0 -56598-2 0  9997
2 56123  42.9998 234.9395 0003657 269.0510  47.1784 15.77703028  1304
STARLINK AJ             
1 56124U 23046AJ  23093.66667824 -.00884301  00000+0 -56940-2 0  9996
2 56124  42.9997 234.9432 0003522 268.9153  45.6989 15.77586562  1300
STARLINK AK             
1 56125U 23046AK  23093.66667824 -.00884474  00000+0 -56709-2 0  9991
2 56125  42.9997 234.9401 0003575 268.9350  46.9681 15.77680594  1307
STARLINK AL             
1 56126U 23046AL  23093.66667824 -.00883890  00000+0 -56549-2 0  9995
2 56126  42.9998 234.9386 0003638 269.0546  47.4991 15.77726112  1307
STARLINK AM             
1 56127U 23046AM  23093.66667824 -.00883706  00000+0 -56343-2 0  9994
2 56127  42.9997 234.9363 0003973 269.1344  48.3609 15.77797275  1305
STARLINK AN             
1 56128U 23046AN  23093.66667824 -.00884326  00000+0 -56762-2 0  9999
2 56128  42.9998 234.9409 0003534 268.9918  46.5980 15.77656363  1309
STARLINK AP             
1 56129U 23046AP  23093.66667824 -.00885095  00000+0 -56378-2 0  9997
2 56129  42.9997 234.9354 0003965 268.9956  48.8121 15.77822003  1306
STARLINK AQ             
1 56130U 23046AQ  23093.66667824 -.00883344  00000+0 -56433-2 0  9996
2 56130  42.9997 234.9377 0004036 269.0080  47.8421 15.77751162  1302
STARLINK AR             
1 56131U 23046AR  23093.66667824 -.00883905  00000+0 -56067-2 0  9993
2 56131  42.9997 234.9324 0003896 269.1188  49.9706 15.77912178  1303
STARLINK AS             
1 56132U 23046AS  23093.66667824 -.00883645  00000+0 -56398-2 0  9992
2 56132  42.9997 234.9370 0003956 269.1311  48.0427 15.77774246  1302
STARLINK AT             
1 56133U 23046AT  23093.66667824 -.00882941  00000+0 -56045-2 0  9990
2 56133  42.9998 234.9333 0004226 268.9506  49.8071 15.77889763  1302
STARLINK AU             
1 56134U 23046AU  23093.66667824 -.00883724  00000+0 -56227-2 0  9993
2 56134  42.9997 234.9346 0004032 269.1401  49.0046 15.77842476  1302
STARLINK AV             
1 56135U 23046AV  23093.66667824 -.00885274  00000+0 -55991-2 0  9993
2 56135  42.9998 234.9301 0003450 268.9768  51.0121 15.77985572  1303
STARLINK AW             
1 56136U 23046AW  23093.66667824 -.00882897  00000+0 -56092-2 0  9995
2 56136  43.0000 234.9334 0004463 268.5596  49.8789 15.77866771  1300
STARLINK AX             
1 56137U 23046AX  23093.66667824 -.00885277  00000+0 -55750-2 0  9991
2 56137  42.9997 234.9271 0003776 269.1483  52.0989 15.78076518  1303
STARLINK AY             
1 56138U 23046AY  23093.66667824 -.00885504  00000+0 -56124-2 0  9991
2 56138  42.9997 234.9316 0003529 269.1642  50.2118 15.77938594  1301
STARLINK AZ             
1 56139U 23046AZ  23093.66667824 -.00889797  00000+0 -56175-2 0  9996
2 56139  42.9998 234.9283 0003756 268.1415  52.4817 15.78033583  1300
STARLINK BA             
1 56140U 23046BA  23093.66667824 -.00889578  00000+0 -56337-2 0  9995
2 56140  42.9998 234.9306 0003701 268.1599  51.5210 15.77964837  1302
STARLINK BB             
1 56141U 23046BB  23093.66667824 -.00884906  00000+0 -55651-2 0  9994
2 56141  42.9998 234.9263 0004097 269.3236  52.2086 15.78101170  1308
STARLINK BC             
1 56142U 23046BC  23093.66667824 -.00886255  00000+0 -55985-2 0  9994
2 56142  42.9999 234.9286 0003926 268.5271  51.7796 15.78008776  1305
STARLINK BD             
1 56143U 23046BD  23093.66667824 -.00884225  00000+0 -55465-2 0  9993
2 56143  42.9997 234.9249 0004894 269.2892  52.8803 15.78144846  1305
STARLINK BE             
1 56144U 23046BE  23093.66667824 -.00890021  00000+0 -56139-2 0  9994
2 56144  42.9998 234.9273 0003453 268.4177  52.5032 15.78057752  1301
STARLINK BF             
1 56145U 23046BF  23093.66667824 -.00889804  00000+0 -55826-2 0  9994
2 56145  42.9999 234.9238 0003624 268.4478  54.0095 15.78172701  1306
STARLINK BG             
1 56146U 23046BG  23093.66667824 -.00884955  00000+0 -55590-2 0  9995
2 56146  42.9998 234.9253 0004183 269.3486  52.4750 15.78125493  1309
STARLINK BH             
1 56147U 23046BH  23093.66667824 -.00889357  00000+0 -55678-2 0  9994
2 56147  42.9999 234.9222 0003599 268.3189  54.7366 15.78219194  1306
STARLINK BJ             
1 56148U 23046BJ  23093.66667824 -.00885718  00000+0 -55479-2 0  9991
2 56148  42.9998 234.9229 0004120 269.4000  53.3871 15.78191321  1305
FALCON 9 DEB            
1 56149U 23046BK  23093.60258203  .00268919  33347-4  10125-2 0  9993
2 56149  43.0100 235.2092 0030315   5.9238 354.1989 15.86274863   758
FALCON 9 DEB            
1 56150U 23046BL  23093.60160225  .00295994  38896-4  10984-2 0  9991
2 56150  43.0089 235.2020 0027798   7.8291 352.3012 15.86673579   752
FALCON 9 DEB            
1 56151U 23046BM  23093.59865474  .00291687  38364-4  10287-2 0  9999
2 56151  43.0050 235.1737 0027098 357.9179   2.1578 15.87723811   755
FALCON 9 DEB            
1 56152U 23046BN  23093.59792595  .00283333  36702-4  99443-3 0  9998
2 56152  43.0041 235.1673 0025084 359.2374   0.8458 15.87915020   757
2023-047A               
1 56153U 23047A   23093.86101553  .00009766  00000+0  45612-3 0  9990
2 56153  97.4373 281.9404 0010250 253.1589 218.9898 15.19972117   675
2023-047B               
1 56154U 23047B   23093.86018079  .00009753  00000+0  45156-3 0  9990
2 56154  97.4375 281.9410 0010264 260.9080 211.4542 15.20274281   675
2023-047C               
1 56155U 23047C   23093.99964427  .00009689  00000+0  44569-3 0  9997
2 56155  97.4372 282.0808 0011209 264.5875 254.0489 15.20489553   693
2023-047D               
1 56156U 23047D   23093.85875281  .00009591  00000+0  43764-3 0  9990
2 56156  97.4371 281.9433 0011139 271.7265 200.7360 15.20773913   670
2023-048A               
1 56157U 23048A   23093.59429608  .00000028  00000+0  20453-3 0  9997
2 56157  63.4028 224.4619 0002210 293.6607  66.4187 13.43795955   446
2023-048B               
1 56158U 23048B   23093.53528665  .00000475  00000+0  63229-3 0  9999
2 56158  63.4098 224.2600 0123358  43.2572 317.8073 13.68399116   442
2023-049A               
1 56159U 23049A   23093.94797301 -.00000073  00000+0  00000+0 0  9990
2 56159  97.4059 239.1443 0012719 276.1126 242.3232 15.26175506   212
2023-049B               
1 56160U 18081M   23093.71396404  .00047978  00000+0  66425-2 0  9996
2 56160  99.1490 257.1153 0253886  41.3606 320.6511 14.58029657  2016
2023-050A               
1 56162U 23050A   23093.39749660  .00000011  00000+0  00000+0 0  9991
2 56162  81.0010 114.2705 0005333 227.1820 270.4979 13.84590594   105
2023-050B               
1 56163U 23050B   23093.87566597  .00000011  00000+0  00000+0 0  9991
2 56163  80.9982 113.8133 0005244 229.4251 130.6428 13.84638941   189
2023-050C               
1 56164U 23050C   23093.39684685  .00000011  00000+0  00000+0 0  9998
2 56164  81.0017 114.2720 0005769 223.9133 270.8032 13.84686457   103
